CCSDS_OEM_VERS = 2.0
CREATION_DATE  = 2024-01-31T22:48:52.450
ORIGINATOR     = NASA/JSC/FOD/TOPO

META_START
OBJECT_NAME          = ISS
OBJECT_ID            = 1998-067-A
CENTER_NAME          = Earth
REF_FRAME            = EME2000
TIME_SYSTEM          = UTC
START_TIME           = 2024-01-31T12:00:00.000
USEABLE_START_TIME   = 2024-01-31T12:00:00.000
USEABLE_STOP_TIME    = 2024-02-15T12:00:00.000
STOP_TIME            = 2024-02-15T12:00:00.000
META_STOP

COMMENT Source: This file was produced by the TOPO office within FOD at JSC.
COMMENT Units are in kg and m^2
COMMENT MASS=462998.00
COMMENT DRAG_AREA=1518.40
COMMENT DRAG_COEFF=2.10
COMMENT SOLAR_RAD_AREA=0.00
COMMENT SOLAR_RAD_COEFF=0.00
COMMENT Orbits start at the ascending node epoch
COMMENT ISS first asc. node: EPOCH = 2024-01-31T12:02:37.984 $ ORBIT = 3719 $ LAN(DEG) = -33.24162
COMMENT ISS last asc. node : EPOCH = 2024-02-15T11:07:18.801 $ ORBIT = 3951 $ LAN(DEG) = -108.24395
COMMENT Begin sequence of events
COMMENT TRAJECTORY EVENT SUMMARY:
COMMENT 
COMMENT |       EVENT        |       TIG        | ORB |   DV    |   HA    |   HP    |
COMMENT |                    |       GMT        |     |   M/S   |   KM    |   KM    |
COMMENT |                    |                  |     |  (F/S)  |  (NM)   |  (NM)   |
COMMENT =============================================================================
COMMENT  NG-20 Capture         032:09:20:00.000             0.0     423.9     412.3
COMMENT                                                    (0.0)   (228.9)   (222.6)
COMMENT 
COMMENT  Ax-3 Undock           034:11:00:00.000             0.0     423.4     412.5
COMMENT                                                    (0.0)   (228.6)   (222.7)
COMMENT 
COMMENT =============================================================================
COMMENT End sequence of events
2024-02-02T04:40:00.000 4218.290511584900 -369.121796165459 5307.698927837730 0.34450855412129 7.65064406085822 0.25551008848230
2024-02-02T04:44:00.000 4146.651037889310 1458.145951993730 5174.813599833920 -0.93791989010998 7.48365878468626 -1.35618295544623
2024-02-02T04:48:00.000 3773.513997641000 3179.383324237290 4664.607261346040 -2.15268635125207 6.77234910780376 -2.86964626458442
2024-02-02T04:52:00.000 3125.865603165450 4669.315004966440 3814.102501064640 -3.21152397886686 5.56777269396604 -4.17461718451247
2024-02-02T04:56:00.000 2250.685619557280 5819.343949190080 2685.173095211530 -4.03713329718302 3.95708616700181 -5.17554404464135
2024-02-02T05:00:00.000 1211.601826361050 6545.558826744730 1360.132797635310 -4.56896574298470 2.05766293450410 -5.79876459386772
2024-02-02T05:04:00.000 84.271726659156 6795.023041441510 -64.263526936018 -4.76800757473322 0.00863032248745 -5.99841459522412
2024-02-02T05:08:00.000 -1049.202643106910 6549.761121713700 -1483.984167150850 -4.61992765559189 -2.03967160047136 -5.76013803779930
2024-02-02T05:12:00.000 -2106.373735928490 5828.064895705930 -2795.474724947610 -4.13618339651576 -3.93732721264368 -5.10221531974904
2024-02-02T05:16:00.000 -3010.551731441640 4682.990065176400 -3903.339815177310 -3.35292454719743 -5.54640383156774 -4.07384340546528
2024-02-02T05:20:00.000 -3696.383313633990 3198.221789210620 -4727.296973199660 -2.32780340490776 -6.75110517671402 -2.75087703346532
2024-02-02T05:24:00.000 -4114.481313923460 1481.771215093590 -5207.873718611960 -1.13536688191671 -7.46560736947728 -1.22977780596310
2024-02-02T05:28:00.000 -4234.836967423470 -341.920527230845 -5310.520073732310 0.13841922631810 -7.63952540175612 0.37950783765829
2024-02-02T05:32:00.000 -4048.844744472120 -2140.881137774060 -5027.917339088850 1.40217210025266 -7.26075072031256 1.96126034017785
2024-02-02T05:36:00.000 -3569.871059546340 -3784.912252141680 -4380.454518477110 2.56519612727228 -6.35612566832850 3.40159879492461
2024-02-02T05:40:00.000 -2832.355336059710 -5154.803104113060 -3414.846527974940 3.54358485110596 -4.98989825720503 4.59629623150525
2024-02-02T05:44:00.000 -1889.469418793980 -6150.881879192100 -2200.931455999190 4.26609055125927 -3.25982568351136 5.45805112247292
2024-02-02T05:48:00.000 -809.416614939407 -6700.361227781140 -826.787837412252 4.67953614402399 -1.29088993607234 5.92319819980188
2024-02-02T05:52:00.000 329.449729248393 -6762.840469741550 607.600405129644 4.75309465065770 0.77364458260231 5.95687598173831
2024-02-02T05:56:00.000 1444.340904156520 -6333.449095363090 1997.664766324290 4.48091659257343 2.78284237030459 5.55603939023655
2024-02-02T06:00:00.000 2454.148137942820 -5443.307851197150 3241.992910698100 3.88277282739629 4.58965643382409 4.74987533916698
2024-02-02T06:04:00.000 3285.440899276410 -4157.222437988230 4249.837880193320 3.00243060062245 6.06219297363286 3.59746983488283
2024-02-02T06:08:00.000 3877.839155648980 -2568.844870433580 4947.782563580450 1.90415389969501 7.09345829847568 2.18321990866761
2024-02-02T06:12:00.000 4188.356120626700 -793.725181343277 5285.045315635710 0.66771709979734 7.60894264517686 0.61012286915059
2024-02-02T06:16:00.000 4194.443337585350 1039.093028321650 5237.064883901740 -0.61734852329710 7.57133427740084 -1.00757091682899
2024-02-02T06:20:00.000 3895.590621987900 2796.359304538670 4807.258095539970 -1.85798882372178 6.98311270265919 -2.55234839409911
2024-02-02T06:24:00.000 3313.391329697600 4350.215686064460 4026.800290528450 -2.96415847278695 5.88648643338176 -3.91177883865702
2024-02-02T06:28:00.000 2490.045260260400 5587.449198487410 2952.437535689440 -3.85521066252574 4.36063430412246 -4.98647801397743
2024-02-02T06:32:00.000 1485.378492795370 6417.795451830320 1662.463653199110 -4.46584549014277 2.51653905302624 -5.69741493944898
2024-02-02T06:36:00.000 372.525095258228 6780.690130345150 251.051946892272 -4.75121961830015 0.48918208926458 -5.99221758235506
2024-02-02T06:40:00.000 -767.457630534037 6649.836322699380 -1178.704930209360 -4.69059570705997 -1.57267912086502 -5.84942480649829
2024-02-02T06:44:00.000 -1851.613993317040 6035.153915804060 -2522.475585290090 -4.28898123659372 -3.51798863672520 -5.28023663175430
2024-02-02T06:48:00.000 -2801.239453845480 4981.910230559810 -3682.447812216010 -3.57650854463921 -5.20511336716010 -4.32735043166632
2024-02-02T06:52:00.000 -3547.629343861190 3567.168690813350 -4574.487226334170 -2.60578645278082 -6.51232997898748 -3.06124564519551
2024-02-02T06:56:00.000 -4036.985964289400 1893.942711549670 -5134.149281495520 -1.44760660826864 -7.34631575001957 -1.57444141904810
2024-02-02T07:00:00.000 -4234.154344610990 83.616084909128 -5321.152456995760 -0.18558359517252 -7.64808294662989 0.02543951719932
2024-02-02T07:04:00.000 -4125.004648395380 -1732.763148577400 -5122.109242084980 1.08967878106903 -7.39648694498309 1.62319735475611
2024-02-02T07:08:00.000 -3717.382088678490 -3423.757985809980 -4551.400813813380 2.28669691489350 -6.60941414812718 3.10392822412099
2024-02-02T07:12:00.000 -3040.579806957240 -4866.814708293250 -3650.189089416200 3.31922357816381 -5.34267265484038 4.36061270634710
2024-02-02T07:16:00.000 -2143.357772873960 -5957.028943788410 -2483.617119830040 4.11227086504178 -3.68675447309999 5.30165768818001
2024-02-02T07:20:00.000 -1090.564045022860 -6614.813136773590 -1136.268800811800 4.60760656883025 -1.76098584636769 5.85769516109012
2024-02-02T07:24:00.000 41.465653601796 -6791.886997050020 293.868120662975 4.76842565794633 0.29463927264557 5.98719279209723
2024-02-02T07:28:00.000 1170.469221613340 -6475.012424624830 1702.563713136390 4.58247363727703 2.32997013018800 5.68003112363596
2024-02-02T07:32:00.000 2214.313539566550 -5687.078117449050 2987.045520838590 4.06310699240756 4.19601490143068 4.95843613096312
2024-02-02T07:36:00.000 3097.071246208420 -4485.437785312520 4053.622640226380 3.24833913462352 5.75642296704050 3.87533649947080
2024-02-02T07:40:00.000 3754.603371868060 -2957.610187375810 4824.579981333800 2.19772028928244 6.89769698343289 2.51007091824207
2024-02-02T07:44:00.000 4139.190598689450 -1214.775631940170 5243.816647406380 0.98765399108114 7.53729166055643 0.96223611796571
2024-02-02T07:48:00.000 4222.923739998290 616.356924489188 5280.830528490170 -0.29416671059416 7.62904917447058 -0.65571932905521
2024-02-02T07:52:00.000 3999.672366090360 2402.686119921740 4932.861489602860 -1.55500303944999 7.16612468781019 -2.22639643398644
2024-02-02T07:56:00.000 3485.539317685940 4014.264782943380 4225.117583465170 -2.70339010463515 6.18157945345684 -3.63549115346783
2024-02-02T08:00:00.000 2717.769327809460 5333.709451070710 3209.037714714150 -3.65569344161898 4.74646322376683 -4.78006867538602
2024-02-02T08:04:00.000 1752.119380056210 6264.788926858710 1958.636570057080 -4.34223200429953 2.96499626184509 -5.57609860039802
2024-02-02T08:08:00.000 658.855658785993 6739.572490301810 565.168629546288 -4.71258593446966 0.96739104124312 -5.96491954786783
2024-02-02T08:12:00.000 -482.393526875965 6723.555966357370 -869.583860803393 -4.73969485371643 -1.09980254556117 -5.91807241795558
2024-02-02T08:16:00.000 -1588.547947369410 6218.243838863110 -2240.889837284020 -4.42203980847929 -3.08502061291659 -5.43959978136727
2024-02-02T08:20:00.000 -2579.249010252170 5260.935758423470 -3448.868278966880 -3.78362364042326 -4.84346596093534 -4.56555132953436
2024-02-02T08:24:00.000 -3382.759566676800 3921.765063092580 -4405.831181862930 -2.87176069052446 -6.24799848162998 -3.36074924128227
2024-02-02T08:28:00.000 -3941.113841253600 2298.339504897510 -5042.583766631070 -1.75312263331700 -7.19810833207450 -1.91345335816672
2024-02-02T08:32:00.000 -4214.168527620320 508.513271751787 -5313.260608330890 -0.50864277277838 -7.62646722488250 -0.32861289243334
2024-02-02T08:36:00.000 -4182.340514009760 -1318.112269160420 -5198.443307041570 0.77227690302647 -7.50297123665644 1.27960821630828
2024-02-02T08:40:00.000 -3847.920502913860 -3049.365032037540 -4706.451156097010 1.99776151014438 -6.83642256645985 2.79551342660705
